CCSDS_OMM_VERS = 2.0
CREATION_DATE  = 
ORIGINATOR     = 

OBJECT_NAME    = STARLINK-36319
OBJECT_ID      = 2026-038K
CENTER_NAME    = EARTH
REF_FRAME      = TEME
TIME_SYSTEM    = UTC
MEAN_ELEMENT_THEORY = SGP/SGP4

EPOCH          = 2026-03-05T16:00:00.999936
MEAN_MOTION    = 16.01188425
ECCENTRICITY   = .0001171
INCLINATION    = 97.2749
RA_OF_ASC_NODE = 74.6355
ARG_OF_PERICENTER = 76.9512
MEAN_ANOMALY   = 304.7214

EPHEMERIS_TYPE = 0
CLASSIFICATION_TYPE = U
NORAD_CAT_ID   = 67970
ELEMENT_SET_NO = 999
REV_AT_EPOCH   = 252
BSTAR          = -.28972E-2
MEAN_MOTION_DOT = -.1558834E-1
MEAN_MOTION_DDOT = .75595E-3

CCSDS_OMM_VERS = 2.0
CREATION_DATE  = 
ORIGINATOR     = 

OBJECT_NAME    = STARLINK-36710
OBJECT_ID      = 2026-038L
CENTER_NAME    = EARTH
REF_FRAME      = TEME
TIME_SYSTEM    = UTC
MEAN_ELEMENT_THEORY = SGP/SGP4

EPOCH          = 2026-03-05T16:00:00.999936
MEAN_MOTION    = 16.01468954
ECCENTRICITY   = .0001038
INCLINATION    = 97.2747
RA_OF_ASC_NODE = 74.6384
ARG_OF_PERICENTER = 89.9553
MEAN_ANOMALY   = 297.5325

EPHEMERIS_TYPE = 0
CLASSIFICATION_TYPE = U
NORAD_CAT_ID   = 67971
ELEMENT_SET_NO = 999
REV_AT_EPOCH   = 255
BSTAR          = -.28268E-2
MEAN_MOTION_DOT = -.1545798E-1
MEAN_MOTION_DDOT = .74663E-3

CCSDS_OMM_VERS = 2.0
CREATION_DATE  = 
ORIGINATOR     = 

OBJECT_NAME    = STARLINK-36894
OBJECT_ID      = 2026-038M
CENTER_NAME    = EARTH
REF_FRAME      = TEME
TIME_SYSTEM    = UTC
MEAN_ELEMENT_THEORY = SGP/SGP4

EPOCH          = 2026-03-05T16:00:00.999936
MEAN_MOTION    = 16.01603717
ECCENTRICITY   = .0001182
INCLINATION    = 97.2744
RA_OF_ASC_NODE = 74.6394
ARG_OF_PERICENTER = 74.2276
MEAN_ANOMALY   = 315.8835

EPHEMERIS_TYPE = 0
CLASSIFICATION_TYPE = U
NORAD_CAT_ID   = 67972
ELEMENT_SET_NO = 999
REV_AT_EPOCH   = 255
BSTAR          = -.28149E-2
MEAN_MOTION_DOT = -.1551228E-1
MEAN_MOTION_DDOT = .75269E-3

CCSDS_OMM_VERS = 2.0
CREATION_DATE  = 
ORIGINATOR     = 

OBJECT_NAME    = STARLINK-36900
OBJECT_ID      = 2026-038N
CENTER_NAME    = EARTH
REF_FRAME      = TEME
TIME_SYSTEM    = UTC
MEAN_ELEMENT_THEORY = SGP/SGP4

EPOCH          = 2026-03-05T16:00:00.999936
MEAN_MOTION    = 16.01860316
ECCENTRICITY   = .0001058
INCLINATION    = 97.2743
RA_OF_ASC_NODE = 74.6415
ARG_OF_PERICENTER = 85.1091
MEAN_ANOMALY   = 310.2474

EPHEMERIS_TYPE = 0
CLASSIFICATION_TYPE = U
NORAD_CAT_ID   = 67973
ELEMENT_SET_NO = 999
REV_AT_EPOCH   = 255
BSTAR          = -.27598E-2
MEAN_MOTION_DOT = -.1543664E-1
MEAN_MOTION_DDOT = .7481E-3

CCSDS_OMM_VERS = 2.0
CREATION_DATE  = 
ORIGINATOR     = 

OBJECT_NAME    = STARLINK-36901
OBJECT_ID      = 2026-038P
CENTER_NAME    = EARTH
REF_FRAME      = TEME
TIME_SYSTEM    = UTC
MEAN_ELEMENT_THEORY = SGP/SGP4

EPOCH          = 2026-03-05T16:00:00.999936
MEAN_MOTION    = 16.01722569
ECCENTRICITY   = .0001167
INCLINATION    = 97.2743
RA_OF_ASC_NODE = 74.6402
ARG_OF_PERICENTER = 70.9973
MEAN_ANOMALY   = 321.6088

EPHEMERIS_TYPE = 0
CLASSIFICATION_TYPE = U
NORAD_CAT_ID   = 67974
ELEMENT_SET_NO = 999
REV_AT_EPOCH   = 255
BSTAR          = -.27842E-2
MEAN_MOTION_DOT = -.1544972E-1
MEAN_MOTION_DDOT = .74808E-3

CCSDS_OMM_VERS = 2.0
CREATION_DATE  = 
ORIGINATOR     = 

OBJECT_NAME    = STARLINK-36883
OBJECT_ID      = 2026-038Q
CENTER_NAME    = EARTH
REF_FRAME      = TEME
TIME_SYSTEM    = UTC
MEAN_ELEMENT_THEORY = SGP/SGP4

EPOCH          = 2026-03-05T16:00:00.999936
MEAN_MOTION    = 16.02384284
ECCENTRICITY   = .000122
INCLINATION    = 97.2737
RA_OF_ASC_NODE = 74.6461
ARG_OF_PERICENTER = 69.3646
MEAN_ANOMALY   = 336.6153

EPHEMERIS_TYPE = 0
CLASSIFICATION_TYPE = U
NORAD_CAT_ID   = 67975
ELEMENT_SET_NO = 999
REV_AT_EPOCH   = 255
BSTAR          = -.26494E-2
MEAN_MOTION_DOT = -.1527862E-1
MEAN_MOTION_DDOT = .73841E-3

CCSDS_OMM_VERS = 2.0
CREATION_DATE  = 
ORIGINATOR     = 

OBJECT_NAME    = STARLINK-36880
OBJECT_ID      = 2026-038R
CENTER_NAME    = EARTH
REF_FRAME      = TEME
TIME_SYSTEM    = UTC
MEAN_ELEMENT_THEORY = SGP/SGP4

EPOCH          = 2026-03-05T16:00:00.999936
MEAN_MOTION    = 16.01991508
ECCENTRICITY   = .0001146
INCLINATION    = 97.2741
RA_OF_ASC_NODE = 74.6425
ARG_OF_PERICENTER = 75.1382
MEAN_ANOMALY   = 322.8940

EPHEMERIS_TYPE = 0
CLASSIFICATION_TYPE = U
NORAD_CAT_ID   = 67976
ELEMENT_SET_NO = 999
REV_AT_EPOCH   = 255
BSTAR          = -.2732E-2
MEAN_MOTION_DOT = -.1539785E-1
MEAN_MOTION_DDOT = .74574E-3

CCSDS_OMM_VERS = 2.0
CREATION_DATE  = 
ORIGINATOR     = 

OBJECT_NAME    = STARLINK-36904
OBJECT_ID      = 2026-038S
CENTER_NAME    = EARTH
REF_FRAME      = TEME
TIME_SYSTEM    = UTC
MEAN_ELEMENT_THEORY = SGP/SGP4

EPOCH          = 2026-03-05T16:00:00.999936
MEAN_MOTION    = 16.02251830
ECCENTRICITY   = .0001284
INCLINATION    = 97.2737
RA_OF_ASC_NODE = 74.6445
ARG_OF_PERICENTER = 68.8039
MEAN_ANOMALY   = 334.5147

EPHEMERIS_TYPE = 0
CLASSIFICATION_TYPE = U
NORAD_CAT_ID   = 67977
ELEMENT_SET_NO = 999
REV_AT_EPOCH   = 255
BSTAR          = -.26752E-2
MEAN_MOTION_DOT = -.1530904E-1
MEAN_MOTION_DDOT = .74E-3

CCSDS_OMM_VERS = 2.0
CREATION_DATE  = 
ORIGINATOR     = 

OBJECT_NAME    = STARLINK-36364
OBJECT_ID      = 2026-038T
CENTER_NAME    = EARTH
REF_FRAME      = TEME
TIME_SYSTEM    = UTC
MEAN_ELEMENT_THEORY = SGP/SGP4

EPOCH          = 2026-03-05T16:00:00.999936
MEAN_MOTION    = 16.02707221
ECCENTRICITY   = .0001111
INCLINATION    = 97.2731
RA_OF_ASC_NODE = 74.6485
ARG_OF_PERICENTER = 86.3542
MEAN_ANOMALY   = 325.8417

EPHEMERIS_TYPE = 0
CLASSIFICATION_TYPE = U
NORAD_CAT_ID   = 67978
ELEMENT_SET_NO = 999
REV_AT_EPOCH   = 255
BSTAR          = -.26059E-2
MEAN_MOTION_DOT = -.1531318E-1
MEAN_MOTION_DDOT = .74433E-3

CCSDS_OMM_VERS = 2.0
CREATION_DATE  = 
ORIGINATOR     = 

OBJECT_NAME    = STARLINK-36359
OBJECT_ID      = 2026-038U
CENTER_NAME    = EARTH
REF_FRAME      = TEME
TIME_SYSTEM    = UTC
MEAN_ELEMENT_THEORY = SGP/SGP4

EPOCH          = 2026-03-05T16:00:00.999936
MEAN_MOTION    = 16.02101424
ECCENTRICITY   = .0001101
INCLINATION    = 97.2738
RA_OF_ASC_NODE = 74.6430
ARG_OF_PERICENTER = 81.4662
MEAN_ANOMALY   = 318.8111

EPHEMERIS_TYPE = 0
CLASSIFICATION_TYPE = U
NORAD_CAT_ID   = 67979
ELEMENT_SET_NO = 999
REV_AT_EPOCH   = 255
BSTAR          = -.27108E-2
MEAN_MOTION_DOT = -.1537627E-1
MEAN_MOTION_DDOT = .74475E-3

CCSDS_OMM_VERS = 2.0
CREATION_DATE  = 
ORIGINATOR     = 

OBJECT_NAME    = STARLINK-36882
OBJECT_ID      = 2026-038V
CENTER_NAME    = EARTH
REF_FRAME      = TEME
TIME_SYSTEM    = UTC
MEAN_ELEMENT_THEORY = SGP/SGP4

EPOCH          = 2026-03-05T16:00:00.999936
MEAN_MOTION    = 16.02556512
ECCENTRICITY   = .0001238
INCLINATION    = 97.2734
RA_OF_ASC_NODE = 74.6470
ARG_OF_PERICENTER = 73.2358
MEAN_ANOMALY   = 336.0036

EPHEMERIS_TYPE = 0
CLASSIFICATION_TYPE = U
NORAD_CAT_ID   = 67980
ELEMENT_SET_NO = 999
REV_AT_EPOCH   = 255
BSTAR          = -.2629E-2
MEAN_MOTION_DOT = -.1531379E-1
MEAN_MOTION_DDOT = .74307E-3

CCSDS_OMM_VERS = 2.0
CREATION_DATE  = 
ORIGINATOR     = 

OBJECT_NAME    = STARLINK-36874
OBJECT_ID      = 2026-038W
CENTER_NAME    = EARTH
REF_FRAME      = TEME
TIME_SYSTEM    = UTC
MEAN_ELEMENT_THEORY = SGP/SGP4

EPOCH          = 2026-03-05T16:00:00.999936
MEAN_MOTION    = 16.02796736
ECCENTRICITY   = .0001218
INCLINATION    = 97.2733
RA_OF_ASC_NODE = 74.6494
ARG_OF_PERICENTER = 75.1212
MEAN_ANOMALY   = 339.2772

EPHEMERIS_TYPE = 0
CLASSIFICATION_TYPE = U
NORAD_CAT_ID   = 67981
ELEMENT_SET_NO = 999
REV_AT_EPOCH   = 255
BSTAR          = -.25511E-2
MEAN_MOTION_DOT = -.1507287E-1
MEAN_MOTION_DDOT = .72351E-3

